[{"OBJECT_NAME":"ONEWEB-0570","OBJECT_ID":"2023-004K","EPOCH":"2026-03-09T17:30:13.547808","MEAN_MOTION":13.18686123,"ECCENTRICITY":0.00020191,"INCLINATION":87.9243,"RA_OF_ASC_NODE":355.2294,"ARG_OF_PERICENTER":64.815,"MEAN_ANOMALY":295.3192,"EPHEMERIS_TYPE":0,"CLASSIFICATION_TYPE":"U","NORAD_CAT_ID":55149,"ELEMENT_SET_NO":999,"REV_AT_EPOCH":15658,"BSTAR":-0.00033256491,"MEAN_MOTION_DOT":-1.18e-6,"MEAN_MOTION_DDOT":0},{"OBJECT_NAME":"SL-14 DEB","OBJECT_ID":"1991-056DR","EPOCH":"2026-03-08T19:43:50.264256","MEAN_MOTION":13.20393138,"ECCENTRICITY":0.00134558,"INCLINATION":82.5986,"RA_OF_ASC_NODE":214.3324,"ARG_OF_PERICENTER":222.1757,"MEAN_ANOMALY":137.8333,"EPHEMERIS_TYPE":0,"CLASSIFICATION_TYPE":"U","NORAD_CAT_ID":47091,"ELEMENT_SET_NO":999,"REV_AT_EPOCH":25739,"BSTAR":0.0015116276,"MEAN_MOTION_DOT":6.24e-6,"MEAN_MOTION_DDOT":0}]
